FLOCK 4X-44             
1 50994U 22002L   22116.77892000  .00006239  00000+0  34730-3 0  9997
2 50994  97.4937 184.8109 0010845 243.3832 116.6289 15.13944187 15600
FLOCK 4X-2              
1 50996U 22002N   22117.17525640  .00006312  00000+0  35039-3 0  9992
2 50996  97.4926 185.1878 0010816 242.3639 117.6495 15.14041666 15666
FLOCK 4X-20             
1 50997U 22002P   22116.84299960  .00008136  00000+0  45023-3 0  9999
2 50997  97.4920 184.8628 0010629 245.0372 114.9756 15.14062784 15615
FLOCK 4X-30             
1 51000U 22002S   22116.84233854  .00005967  00000+0  33187-3 0  9992
2 51000  97.4871 184.7849 0010907 234.8939 125.1270 15.13994844 15619
FLOCK 4X-22             
1 51003U 22002V   22116.84070572  .00017537  00000+0  96644-3 0  9994
2 51003  97.4908 184.8441 0010679 246.5589 113.4521 15.14012360 15613
FLOCK 4X-5              
1 51004U 22002W   22117.17027821  .00005070  00000+0  28257-3 0  9995
2 51004  97.4881 185.1291 0011240 235.7907 124.2260 15.13989327 15660
FLOCK 4X-41             
1 51005U 22002X   22117.16886268  .00005379  00000+0  29851-3 0  9996
2 51005  97.4863 185.1064 0010917 232.0511 127.9735 15.14116797 15661
FLOCK 4X-3              
1 51006U 22002Y   22116.44167566  .00011941  00000+0  65704-3 0  9999
2 51006  97.4926 184.4757 0011446 244.3371 115.6679 15.14150159 15550
FLOCK 4X-18             
1 51007U 22002Z   22117.23455359  .00005406  00000+0  30005-3 0  9993
2 51007  97.4883 185.1994 0011587 236.3249 123.6878 15.14106889 15679
FLOCK 4X-37             
1 51009U 22002AB  22116.90305033  .00006104  00000+0  33816-3 0  9990
2 51009  97.4931 184.9442 0011660 241.4639 118.5419 15.14116143 15625
FLOCK 4X-15             
1 51010U 22002AC  22116.43464951  .00012546  00000+0  68896-3 0  9998
2 51010  97.4935 184.5023 0011676 242.0746 117.9304 15.14205210 15557
FLOCK 4X-29             
1 51011U 22002AD  22116.90038414  .00016974  00000+0  93166-3 0  9999
2 51011  97.4875 184.8686 0011530 236.2650 123.7484 15.14155119 15621
FLOCK 4X-27             
1 51012U 22002AE  22116.89965925  .00017379  00000+0  95326-3 0  9994
2 51012  97.4914 184.9308 0011736 244.8919 115.1095 15.14170072 15627
FLOCK 4X-12             
1 51015U 22002AH  22116.63225400  .00009501  00000+0  52234-3 0  9995
2 51015  97.4920 184.6769 0011995 239.6821 120.3225 15.14234234 15585
FLOCK 4X-25             
1 51016U 22002AJ  22116.89917582  .00016657  00000+0  91310-3 0  9991
2 51016  97.4902 184.9153 0011379 247.1264 112.8767 15.14205196 15624
FLOCK 4X-1              
1 51017U 22002AK  22116.43306963  .00010503  00000+0  57724-3 0  9992
2 51017  97.4887 184.4326 0011899 239.2776 120.7284 15.14219254 15555
FLOCK 4X-42             
1 51018U 22002AL  22116.89706737  .00011109  00000+0  61037-3 0  9991
2 51018  97.4869 184.8662 0011564 233.2415 126.7756 15.14219383 15627
FLOCK 4X-16             
1 51020U 22002AN  22117.15849841  .00015918  00000+0  87106-3 0  9995
2 51020  97.4872 185.1325 0011800 233.5695 126.4449 15.14274404 15665
FLOCK 4X-38             
1 51023U 22002AR  22117.15786056  .00017077  00000+0  93446-3 0  9998
2 51023  97.4913 185.2059 0012310 244.7312 115.2651 15.14253965 15666
FLOCK 4X-32             
1 51024U 22002AS  22117.15628118  .00015910  00000+0  87039-3 0  9998
2 51024  97.4925 185.2139 0012012 236.6771 123.3312 15.14280555 15666
FLOCK 4X-26             
1 51026U 22002AU  22117.14935983  .00016047  00000+0  87924-3 0  9995
2 51026  97.4884 185.1635 0011989 238.3133 121.6930 15.14224304 15662
FLOCK 4X-43             
1 51027U 22002AV  22116.42302819  .00013780  00000+0  75729-3 0  9993
2 51027  97.4884 184.4434 0011843 239.6167 120.3894 15.14154050 15555
FLOCK 4X-13             
1 51028U 22002AW  22117.14775413  .00018873  00000+0  10305-2 0  9994
2 51028  97.4878 185.1590 0011968 233.9630 126.0493 15.14312471 15663
FLOCK 4X-39             
1 51029U 22002AX  22116.82129022  .00006523  00000+0  35994-3 0  9999
2 51029  97.4879 184.8297 0012003 233.2730 126.7400 15.14232141 15615
FLOCK 4X-17             
1 51035U 22002BD  22116.86993766  .00006628  00000+0  36906-3 0  9994
2 51035  97.4916 184.8201 0007923 241.2651 118.7785 15.13933290 15614
FLOCK 4X-10             
1 51037U 22002BF  22116.18570341  .00017008  00000+0  93752-3 0  9997
2 51037  97.4935 184.2185 0010786 244.0715 115.9406 15.14008433 15516
FLOCK 4X-36             
1 51039U 22002BH  22116.59230056  .00014942  00000+0  82255-3 0  9990
2 51039  97.4931 184.5953 0009042 245.1991 114.8300 15.14100860 15575
FLOCK 4X-21             
1 51040U 22002BJ  22116.13524996  .00014966  00000+0  82674-3 0  9992
2 51040  97.4903 184.0999 0008116 241.2941 118.7475 15.13981984 15506
FLOCK 4X-31             
1 51041U 22002BK  22117.19451247  .00006215  00000+0  34570-3 0  9998
2 51041  97.4876 185.0878 0008401 231.2375 128.8107 15.13994858 15665
FLOCK 4X-34             
1 51042U 22002BL  22116.86391027  .00007117  00000+0  39486-3 0  9994
2 51042  97.4927 184.8419 0008544 244.0733 115.9618 15.14032897 15615
FLOCK 4X-6              
1 51043U 22002BM  22117.12915286  .00010149  00000+0  56161-3 0  9992
2 51043  97.4915 185.0783 0008437 238.2570 121.7840 15.14013818 15653
FLOCK 4X-28             
1 51045U 22002BP  22116.86079054  .00006701  00000+0  37248-3 0  9992
2 51045  97.4884 184.7791 0008812 229.7138 130.3324 15.13984199 15614
FLOCK 4X-19             
1 51046U 22002BQ  22116.85983982  .00006536  00000+0  36335-3 0  9998
2 51046  97.4919 184.8361 0008332 241.8319 118.2071 15.13996521 15617
FLOCK 4X-9              
1 51047U 22002BR  22116.85785822  .00017483  00000+0  96108-3 0  9999
2 51047  97.4927 184.8467 0008849 244.4794 115.5523 15.14116510 15618
FLOCK 4X-35             
1 51048U 22002BS  22117.19022265  .00010983  00000+0  60613-3 0  9993
2 51048  97.4863 185.0780 0008463 234.3766 125.6678 15.14090045 15660
FLOCK 4X-11             
1 51049U 22002BT  22116.46969587  .00015450  00000+0  85201-3 0  9994
2 51049  97.4871 184.3692 0008194 242.0092 118.0311 15.14035344 15552
FLOCK 4X-40             
1 51052U 22002BW  22117.13457000  .00016828  00000+0  92727-3 0  9996
2 51052  97.4874 185.0116 0007933 237.9690 122.0771 15.14046773 15659
FLOCK 4X-24             
1 51056U 22002CA  22116.14438579  .00008785  00000+0  48703-3 0  9998
2 51056  97.4872 184.0466 0007999 237.8136 122.2320 15.13993714 15505
FLOCK 4X-4              
1 51064U 22002CJ  22117.18642938  .00016030  00000+0  88128-3 0  9995
2 51064  97.4884 185.1053 0008861 231.0625 128.9818 15.14133218 15667
FLOCK 4X-7              
1 51065U 22002CK  22117.12349745  .00018273  00000+0  10070-2 0  9991
2 51065  97.4914 185.0877 0008506 239.6035 120.4357 15.14020631 15658
FLOCK 4X-14             
1 51066U 22002CL  22116.46072622  .00012432  00000+0  68639-3 0  9991
2 51066  97.4942 184.4784 0009121 246.4034 113.6240 15.14037358 15557
